     2.11           N: GPS NAV DATA                         RINEX VERSION / TYPE
teqc  2019Feb25                         20221121 12:26:36UTCPGM / RUN BY / DATE
OSX ker:10.11.6|Core i5|gcc 4.3 -m64|OSX ker:10.10+|=+      COMMENT
    5.5879D-09  1.4901D-08 -5.9605D-08 -1.1921D-07          ION ALPHA
    7.7824D+04  3.2768D+04 -6.5536D+04 -2.6214D+05          ION BETA
    9.313225746155D-10-6.217248937901D-15   405504     1546 DELTA-UTC: A0,A1,T,W
                                                            END OF HEADER
13 09  8 26  4  0  0.0 3.037191927433D-04 5.684341886081D-13 0.000000000000D+00
    3.900000000000D+01-4.100000000000D+01 3.742655896641D-09-1.572627411616D-01
   -2.168118953705D-06 4.066570429131D-03 5.686655640602D-06 5.153664112091D+03
    2.736000000000D+05-4.656612873077D-08 1.290956052816D-01-1.862645149231D-09
    9.948130651115D-01 2.871250000000D+02 1.651879166986D+00-7.864256149264D-09
   -2.814402945465D-10 1.000000000000D+00 1.546000000000D+03 0.000000000000D+00
    2.000000000000D+00 0.000000000000D+00-1.117587089539D-08 3.900000000000D+01
    2.664180000000D+05 4.000000000000D+00
31 09  8 26  4  0  0.0-6.486847996712D-05 1.136868377216D-13 0.000000000000D+00
    2.800000000000D+01-5.553125000000D+01 3.908377085308D-09-2.625938092725D+00
   -2.821907401085D-06 7.003088016063D-03 8.709728717804D-06 5.153779350281D+03
    2.736000000000D+05 1.229345798492D-07 1.114750213661D+00 4.470348358154D-08
    9.737468911637D-01 2.206875000000D+02-1.139523938432D+00-7.654247401556D-09
    9.607543049875D-11 1.000000000000D+00 1.546000000000D+03 0.000000000000D+00
    2.000000000000D+00 0.000000000000D+00-1.303851604462D-08 2.800000000000D+01
    2.664180000000D+05 4.000000000000D+00
17 09  8 26  4  0  0.0 8.003460243344D-05 2.842170943040D-12 0.000000000000D+00
    9.800000000000D+01-2.837500000000D+01 4.706624621236D-09 3.102889754327D-01
   -1.478940248489D-06 4.621299682185D-03 8.266419172287D-06 5.153724493027D+03
    2.736000000000D+05-3.725290298462D-09-3.054267590230D+00 6.146728992462D-08
    9.602233019319D-01 2.234062500000D+02-2.639467533629D+00-8.061407218540D-09
   -1.300054152474D-10 1.000000000000D+00 1.546000000000D+03 0.000000000000D+00
    2.800000000000D+00 0.000000000000D+00-1.024454832077D-08 9.800000000000D+01
    2.664180000000D+05 4.000000000000D+00
29 09  8 26  4  0  0.0 5.190400406718D-05 3.296918293927D-12 0.000000000000D+00
    6.600000000000D+01-1.996875000000D+01 4.632335812523D-09 2.897687960129D+00
   -1.318752765656D-06 3.181127598509D-03 8.217990398407D-06 5.153620000839D+03
    2.736000000000D+05 8.009374141693D-08-3.046065437195D+00 3.352761268616D-08
    9.604767598037D-01 2.199062500000D+02-1.280806261350D+00-7.913901074317D-09
   -1.375057276655D-10 1.000000000000D+00 1.546000000000D+03 0.000000000000D+00
    2.000000000000D+00 0.000000000000D+00-8.847564458847D-09 6.600000000000D+01
    2.689380000000D+05 4.000000000000D+00
10 09  8 26  3 59 28.0-2.207607030869D-05-7.958078640513D-13 0.000000000000D+00
    3.100000000000D+01 5.881250000000D+01 4.932348309248D-09 2.599913561293D-01
    3.233551979065D-06 8.588945958763D-03 3.991648554802D-06 5.153656478882D+03
    2.735680000000D+05 4.656612873077D-08-9.545221463302D-01 1.043081283569D-07
    9.568159521393D-01 2.974375000000D+02 6.242555411261D-01-8.479281767549D-09
   -1.196478409557D-10 1.000000000000D+00 1.546000000000D+03 0.000000000000D+00
    2.000000000000D+00 0.000000000000D+00-2.793967723846D-09 3.100000000000D+01
    2.693280000000D+05 4.000000000000D+00
24 09  8 26  3 59 44.0 2.153795212507D-04 3.069544618484D-12 0.000000000000D+00
    2.700000000000D+01 7.256250000000D+01 4.728768400756D-09 1.541840291860D+00
    3.743916749954D-06 6.548115750775D-03 9.531155228615D-06 5.153673973083D+03
    2.735840000000D+05 1.061707735062D-07-1.975288923009D+00 1.117587089539D-08
    9.500957570619D-01 1.905000000000D+02-6.367331278391D-01-7.977117993270D-09
   -1.050043738536D-10 1.000000000000D+00 1.546000000000D+03 0.000000000000D+00
    2.000000000000D+00 0.000000000000D+00-1.396983861923D-09 2.700000000000D+01
    2.719080000000D+05 4.000000000000D+00
16 09  8 26  4  0  0.0 1.926440745592D-05-3.751665644813D-12 0.000000000000D+00
    2.300000000000D+01-2.146875000000D+01 4.337680681811D-09 1.436363207847D+00
   -1.018866896629D-06 5.294874310493D-03 6.509944796562D-06 5.153603046417D+03
    2.736000000000D+05 4.097819328308D-08 2.186506444084D+00 9.313225746155D-08
    9.691724370307D-01 2.572812500000D+02-2.862188849997D-01-7.890685821594D-09
    2.767972440020D-10 1.000000000000D+00 1.546000000000D+03 0.000000000000D+00
    2.000000000000D+00 0.000000000000D+00-9.778887033463D-09 2.300000000000D+01
    2.729880000000D+05 4.000000000000D+00
 7 09  8 26  4  0  0.0 1.269392669201D-05-6.821210263297D-13 0.000000000000D+00
    7.200000000000D+01-3.059375000000D+01 4.051240178986D-09-2.432715634359D+00
   -1.607462763786D-06 3.046319587156D-03 8.435919880867D-06 5.153659288406D+03
    2.736000000000D+05-7.450580596924D-09 1.116434797476D+00 1.303851604462D-08
    9.684030459882D-01 2.218437500000D+02 2.918668159844D+00-7.828183218110D-09
    1.792931825664D-10 1.000000000000D+00 1.546000000000D+03 0.000000000000D+00
    2.000000000000D+00 0.000000000000D+00-1.071020960808D-08 7.200000000000D+01
    2.732280000000D+05 4.000000000000D+00
 2 09  8 26  6  0  0.0 1.677647233009D-04 2.501110429876D-12 0.000000000000D+00
    8.300000000000D+01 4.850000000000D+01 5.047353099659D-09 2.958232040524D-01
    2.600252628326D-06 9.067627135664D-03 9.089708328247D-06 5.153702318192D+03
    2.808000000000D+05 1.210719347000D-07-2.039846431380D+00-5.401670932770D-08
    9.407817994524D-01 1.949062500000D+02 2.885854376287D+00-8.278559120931D-09
    3.678724662220D-11 1.000000000000D+00 1.546000000000D+03 0.000000000000D+00
    2.000000000000D+00 0.000000000000D+00-1.722946763039D-08 8.300000000000D+01
    2.736180000000D+05 4.000000000000D+00
13 09  8 26  6  0  0.0 3.037233836949D-04 5.684341886081D-13 0.000000000000D+00
    4.000000000000D+01-3.596875000000D+01 3.827302279645D-09 8.929758017408D-01
   -2.056360244751D-06 4.065161338076D-03 5.288049578667D-06 5.153661458969D+03
    2.808000000000D+05-3.539025783539D-08 1.290390239990D-01-2.793967723846D-08
    9.948109555837D-01 2.967187500000D+02 1.651823261572D+00-7.865327622466D-09
   -2.957266039144D-10 1.000000000000D+00 1.546000000000D+03 0.000000000000D+00
    2.000000000000D+00 0.000000000000D+00-1.117587089539D-08 4.000000000000D+01
    2.736180000000D+05 4.000000000000D+00
 4 09  8 26  6  0  0.0-2.364912070334D-04-1.705302565824D-11 0.000000000000D+00
    7.700000000000D+01 5.090625000000D+01 4.940920094869D-09-3.131245027324D+00
    2.633780241013D-06 8.694866322912D-03 9.883195161819D-06 5.153794172287D+03
    2.808000000000D+05-7.636845111847D-08-2.021581196960D+00-8.754432201386D-08
    9.399657106019D-01 1.808750000000D+02 5.044076481346D-01-7.980332412877D-09
    3.000124967247D-11 1.000000000000D+00 1.546000000000D+03 0.000000000000D+00
    2.000000000000D+00 0.000000000000D+00-6.053596735001D-09 7.700000000000D+01
    2.736180000000D+05 4.000000000000D+00
23 09  8 26  6  0  0.0 3.891955129802D-04-3.410605131648D-13 0.000000000000D+00
    4.300000000000D+01-3.803125000000D+01 4.428398746297D-09 2.114051037454D-01
   -2.261251211166D-06 6.442890968174D-03 4.354864358902D-06 5.153579643250D+03
    2.808000000000D+05 7.264316082001D-08 7.490237703608D-02 3.166496753693D-08
    9.701934880188D-01 2.990312500000D+02 2.951014544001D+00-8.242843347511D-09
   -3.407284784231D-10 1.000000000000D+00 1.546000000000D+03 0.000000000000D+00
    2.000000000000D+00 0.000000000000D+00-2.002343535423D-08 4.300000000000D+01
    2.736180000000D+05 4.000000000000D+00
10 09  8 26  6  0  0.0-2.208212390542D-05-7.958078640513D-13 0.000000000000D+00
    3.200000000000D+01 6.018750000000D+01 4.924133681361D-09 1.314698859216D+00
    3.362074494362D-06 8.590025594458D-03 4.835426807404D-06 5.153659708023D+03
    2.808000000000D+05-3.911554813385D-08-9.545836283883D-01 2.011656761169D-07
    9.568151446085D-01 2.852500000000D+02 6.244092908904D-01-8.454995041624D-09
   -6.535986535788D-11 1.000000000000D+00 1.546000000000D+03 0.000000000000D+00
    2.000000000000D+00 0.000000000000D+00-2.793967723846D-09 3.200000000000D+01
    2.736180000000D+05 4.000000000000D+00
24 09  8 26  5 59 44.0 2.154018729925D-04 3.069544618484D-12 0.000000000000D+00
    2.800000000000D+01 6.850000000000D+01 4.715553564591D-09 2.592139850149D+00
    3.514811396599D-06 6.548331235535D-03 9.169802069664D-06 5.153672523499D+03
    2.807840000000D+05 7.078051567078D-08-1.975346825307D+00 1.583248376846D-07
    9.500952362630D-01 1.952187500000D+02-6.368495161386D-01-7.968189049915D-09
   -5.714523747137D-12 1.000000000000D+00 1.546000000000D+03 0.000000000000D+00
    2.000000000000D+00 0.000000000000D+00-1.396983861923D-09 2.800000000000D+01
    2.736180000000D+05 4.000000000000D+00
 7 09  8 26  6  0  0.0 1.268880441785D-05-6.821210263297D-13 0.000000000000D+00
    7.600000000000D+01-4.659375000000D+01 4.109814047394D-09-1.383271692967D+00
   -2.413988113403D-06 3.047173260711D-03 8.134171366692D-06 5.153654726028D+03
    2.808000000000D+05-9.685754776001D-08 1.116378893525D+00-2.235174179077D-08
    9.684042675248D-01 2.286250000000D+02 2.919412014189D+00-7.793181760159D-09
    1.135761594744D-10 1.000000000000D+00 1.546000000000D+03 0.000000000000D+00
    2.000000000000D+00 0.000000000000D+00-1.071020960808D-08 7.600000000000D+01
    2.736180000000D+05 4.000000000000D+00
